GLOBALSTAR M063 [+]     
1 26081U 00008A   23267.67825368 -.00000053  00000+0  43597-3 0  9999
2 26081  51.9980 334.7034 0004746 179.8715 345.4499 11.86144620 82634
GLOBALSTAR M062 [-]     
1 26082U 00008B   23268.13522267  .00000001  00000+0  70681-3 0  9990
2 26082  51.9834 151.4380 0006221 200.4596 324.9069 12.43415771 80612
GLOBALSTAR M060 [-]     
1 26083U 00008C   23268.37438028 -.00000178  00000+0 -86249-3 0  9992
2 26083  52.0048  21.5005 0002682 285.4706 109.3379 12.17613324 75692
GLOBALSTAR M064 [-]     
1 26084U 00008D   23267.80198596 -.00000077  00000+0  94581-4 0  9999
2 26084  52.0023  80.6478 0000706 308.2359  51.8410 11.88509753 92131
GLOBALSTAR M065 [+]     
1 31571U 07020A   23268.38402934 -.00000090  00000+0  76438-4 0  9991
2 31571  51.9919 346.1346 0009939 355.1605  83.0761 12.61952228754060
GLOBALSTAR M069 [+]     
1 31573U 07020C   23268.34906228 -.00000042  00000+0  34190-3 0  9999
2 31573  51.9954 302.4179 0000414 164.0328 209.4305 12.62281499754815
GLOBALSTAR M072 [+]     
1 31574U 07020D   23267.56782028 -.00000095  00000+0  46275-4 0  9999
2 31574  52.0101  40.4907 0001066  92.0508 348.2577 12.62265830753053
GLOBALSTAR M071 [P]     
1 31576U 07020F   23268.37557434 -.00000050  00000+0  30024-3 0  9997
2 31576  52.0073 307.2960 0000898 164.9510 207.8925 12.62268775754802
